[{"OBJECT_NAME":"ONEWEB-0176","OBJECT_ID":"2021-031A","EPOCH":"2025-07-29T21:30:39.470688","MEAN_MOTION":13.14504513,"ECCENTRICITY":0.0001856,"INCLINATION":87.9063,"RA_OF_ASC_NODE":353.832,"ARG_OF_PERICENTER":95.0671,"MEAN_ANOMALY":265.0671,"EPHEMERIS_TYPE":0,"CLASSIFICATION_TYPE":"U","NORAD_CAT_ID":48210,"ELEMENT_SET_NO":999,"REV_AT_EPOCH":20597,"BSTAR":-0.00046022,"MEAN_MOTION_DOT":-1.58e-6,"MEAN_MOTION_DDOT":0},{"OBJECT_NAME":"ONEWEB-0184","OBJECT_ID":"2021-031B","EPOCH":"2025-07-29T20:51:49.927104","MEAN_MOTION":13.14501512,"ECCENTRICITY":0.0002184,"INCLINATION":87.9068,"RA_OF_ASC_NODE":353.8065,"ARG_OF_PERICENTER":72.6212,"MEAN_ANOMALY":287.5156,"EPHEMERIS_TYPE":0,"CLASSIFICATION_TYPE":"U","NORAD_CAT_ID":48211,"ELEMENT_SET_NO":999,"REV_AT_EPOCH":20594,"BSTAR":-8.8416e-5,"MEAN_MOTION_DOT":-2.0e-7,"MEAN_MOTION_DDOT":0},{"OBJECT_NAME":"ONEWEB-0179","OBJECT_ID":"2021-031C","EPOCH":"2025-07-29T21:59:11.406336","MEAN_MOTION":13.14502194,"ECCENTRICITY":0.0001722,"INCLINATION":87.9066,"RA_OF_ASC_NODE":353.8153,"ARG_OF_PERICENTER":97.5859,"MEAN_ANOMALY":262.5466,"EPHEMERIS_TYPE":0,"CLASSIFICATION_TYPE":"U","NORAD_CAT_ID":48212,"ELEMENT_SET_NO":999,"REV_AT_EPOCH":20599,"BSTAR":0.000359,"MEAN_MOTION_DOT":1.46e-6,"MEAN_MOTION_DDOT":0},{"OBJECT_NAME":"ONEWEB-0180","OBJECT_ID":"2021-031D","EPOCH":"2025-07-29T22:46:01.015968","MEAN_MOTION":13.14496244,"ECCENTRICITY":0.0001602,"INCLINATION":87.9067,"RA_OF_ASC_NODE":353.796,"ARG_OF_PERICENTER":88.8993,"MEAN_ANOMALY":271.232,"EPHEMERIS_TYPE":0,"CLASSIFICATION_TYPE":"U","NORAD_CAT_ID":48213,"ELEMENT_SET_NO":999,"REV_AT_EPOCH":20588,"BSTAR":-0.0023755,"MEAN_MOTION_DOT":-8.68e-6,"MEAN_MOTION_DDOT":0},{"OBJECT_NAME":"ONEWEB-0218","OBJECT_ID":"2021-031E","EPOCH":"2025-07-29T21:28:21.961632","MEAN_MOTION":13.14504251,"ECCENTRICITY":0.0001955,"INCLINATION":87.9065,"RA_OF_ASC_NODE":353.8073,"ARG_OF_PERICENTER":67.4948,"MEAN_ANOMALY":292.6389,"EPHEMERIS_TYPE":0,"CLASSIFICATION_TYPE":"U","NORAD_CAT_ID":48214,"ELEMENT_SET_NO":999,"REV_AT_EPOCH":20603,"BSTAR":-0.00049062,"MEAN_MOTION_DOT":-1.69e-6,"MEAN_MOTION_DDOT":0},{"OBJECT_NAME":"ONEWEB-0209","OBJECT_ID":"2021-031F","EPOCH":"2025-07-29T21:12:22.411008","MEAN_MOTION":13.14503918,"ECCENTRICITY":0.0001628,"INCLINATION":87.9069,"RA_OF_ASC_NODE":353.8535,"ARG_OF_PERICENTER":96.7448,"MEAN_ANOMALY":263.3867,"EPHEMERIS_TYPE":0,"CLASSIFICATION_TYPE":"U","NORAD_CAT_ID":48215,"ELEMENT_SET_NO":999,"REV_AT_EPOCH":20603,"BSTAR":-0.00055729,"MEAN_MOTION_DOT":-1.94e-6,"MEAN_MOTION_DDOT":0},{"OBJECT_NAME":"ONEWEB-0198","OBJECT_ID":"2021-031G","EPOCH":"2025-07-29T22:39:08.735040","MEAN_MOTION":13.14499209,"ECCENTRICITY":0.0001559,"INCLINATION":87.9066,"RA_OF_ASC_NODE":353.8428,"ARG_OF_PERICENTER":81.9813,"MEAN_ANOMALY":278.1493,"EPHEMERIS_TYPE":0,"CLASSIFICATION_TYPE":"U","NORAD_CAT_ID":48216,"ELEMENT_SET_NO":999,"REV_AT_EPOCH":20615,"BSTAR":-3.46e-5,"MEAN_MOTION_DOT":0,"MEAN_MOTION_DDOT":0},{"OBJECT_NAME":"ONEWEB-0189","OBJECT_ID":"2021-031H","EPOCH":"2025-07-29T21:07:48.970560","MEAN_MOTION":13.14501281,"ECCENTRICITY":0.0001624,"INCLINATION":87.9065,"RA_OF_ASC_NODE":353.829,"ARG_OF_PERICENTER":84.5138,"MEAN_ANOMALY":275.6177,"EPHEMERIS_TYPE":0,"CLASSIFICATION_TYPE":"U","NORAD_CAT_ID":48217,"ELEMENT_SET_NO":999,"REV_AT_EPOCH":20588,"BSTAR":-0.00058069,"MEAN_MOTION_DOT":-2.03e-6,"MEAN_MOTION_DDOT":0},{"OBJECT_NAME":"ONEWEB-0196","OBJECT_ID":"2021-031J","EPOCH":"2025-07-29T20:35:50.500032","MEAN_MOTION":13.14503903,"ECCENTRICITY":0.0001781,"INCLINATION":87.9071,"RA_OF_ASC_NODE":353.8457,"ARG_OF_PERICENTER":93.5733,"MEAN_ANOMALY":266.56,"EPHEMERIS_TYPE":0,"CLASSIFICATION_TYPE":"U","NORAD_CAT_ID":48218,"ELEMENT_SET_NO":999,"REV_AT_EPOCH":20588,"BSTAR":0.0003916,"MEAN_MOTION_DOT":1.58e-6,"MEAN_MOTION_DDOT":0},{"OBJECT_NAME":"ONEWEB-0183","OBJECT_ID":"2021-031K","EPOCH":"2025-07-29T19:59:18.935520","MEAN_MOTION":13.14503473,"ECCENTRICITY":0.0001747,"INCLINATION":87.9063,"RA_OF_ASC_NODE":353.8629,"ARG_OF_PERICENTER":103.0304,"MEAN_ANOMALY":257.102,"EPHEMERIS_TYPE":0,"CLASSIFICATION_TYPE":"U","NORAD_CAT_ID":48219,"ELEMENT_SET_NO":999,"REV_AT_EPOCH":20597,"BSTAR":0.00020718,"MEAN_MOTION_DOT":9.0e-7,"MEAN_MOTION_DDOT":0},{"OBJECT_NAME":"ONEWEB-0185","OBJECT_ID":"2021-031L","EPOCH":"2025-07-29T22:26:34.783584","MEAN_MOTION":13.14500992,"ECCENTRICITY":0.0001467,"INCLINATION":87.9067,"RA_OF_ASC_NODE":353.8082,"ARG_OF_PERICENTER":105.5034,"MEAN_ANOMALY":254.6258,"EPHEMERIS_TYPE":0,"CLASSIFICATION_TYPE":"U","NORAD_CAT_ID":48220,"ELEMENT_SET_NO":999,"REV_AT_EPOCH":20591,"BSTAR":-4.3327e-5,"MEAN_MOTION_DOT":-3.0e-8,"MEAN_MOTION_DDOT":0},{"OBJECT_NAME":"ONEWEB-0187","OBJECT_ID":"2021-031M","EPOCH":"2025-07-29T21:57:51.312672","MEAN_MOTION":13.14501477,"ECCENTRICITY":0.0001511,"INCLINATION":87.9067,"RA_OF_ASC_NODE":353.8588,"ARG_OF_PERICENTER":95.5916,"MEAN_ANOMALY":264.5386,"EPHEMERIS_TYPE":0,"CLASSIFICATION_TYPE":"U","NORAD_CAT_ID":48221,"ELEMENT_SET_NO":999,"REV_AT_EPOCH":20592,"BSTAR":0.0004246,"MEAN_MOTION_DOT":1.7e-6,"MEAN_MOTION_DDOT":0},{"OBJECT_NAME":"ONEWEB-0192","OBJECT_ID":"2021-031N","EPOCH":"2025-07-29T21:14:39.623712","MEAN_MOTION":13.14503484,"ECCENTRICITY":0.0001806,"INCLINATION":87.9069,"RA_OF_ASC_NODE":353.8575,"ARG_OF_PERICENTER":93.3252,"MEAN_ANOMALY":266.8084,"EPHEMERIS_TYPE":0,"CLASSIFICATION_TYPE":"U","NORAD_CAT_ID":48222,"ELEMENT_SET_NO":999,"REV_AT_EPOCH":20583,"BSTAR":-0.00066821,"MEAN_MOTION_DOT":-2.35e-6,"MEAN_MOTION_DDOT":0},{"OBJECT_NAME":"ONEWEB-0219","OBJECT_ID":"2021-031P","EPOCH":"2025-07-29T22:34:36.788448","MEAN_MOTION":13.1450425,"ECCENTRICITY":0.0001497,"INCLINATION":87.907,"RA_OF_ASC_NODE":353.8192,"ARG_OF_PERICENTER":98.4635,"MEAN_ANOMALY":261.6665,"EPHEMERIS_TYPE":0,"CLASSIFICATION_TYPE":"U","NORAD_CAT_ID":48223,"ELEMENT_SET_NO":999,"REV_AT_EPOCH":20604,"BSTAR":0.00026094,"MEAN_MOTION_DOT":1.1e-6,"MEAN_MOTION_DDOT":0},{"OBJECT_NAME":"ONEWEB-0202","OBJECT_ID":"2021-031Q","EPOCH":"2025-07-29T20:17:34.605024","MEAN_MOTION":13.14503687,"ECCENTRICITY":0.0001687,"INCLINATION":87.9067,"RA_OF_ASC_NODE":353.8522,"ARG_OF_PERICENTER":71.2055,"MEAN_ANOMALY":288.9258,"EPHEMERIS_TYPE":0,"CLASSIFICATION_TYPE":"U","NORAD_CAT_ID":48224,"ELEMENT_SET_NO":999,"REV_AT_EPOCH":20601,"BSTAR":0.00052681,"MEAN_MOTION_DOT":2.08e-6,"MEAN_MOTION_DDOT":0},{"OBJECT_NAME":"ONEWEB-0204","OBJECT_ID":"2021-031R","EPOCH":"2025-07-29T21:06:39.608640","MEAN_MOTION":13.14503621,"ECCENTRICITY":0.0001826,"INCLINATION":87.9051,"RA_OF_ASC_NODE":353.8407,"ARG_OF_PERICENTER":106.0923,"MEAN_ANOMALY":254.0408,"EPHEMERIS_TYPE":0,"CLASSIFICATION_TYPE":"U","NORAD_CAT_ID":48225,"ELEMENT_SET_NO":999,"REV_AT_EPOCH":20591,"BSTAR":-0.00049373,"MEAN_MOTION_DOT":-1.7e-6,"MEAN_MOTION_DDOT":0},{"OBJECT_NAME":"ONEWEB-0205","OBJECT_ID":"2021-031S","EPOCH":"2025-07-29T20:31:16.659552","MEAN_MOTION":13.14501385,"ECCENTRICITY":0.0001595,"INCLINATION":87.9068,"RA_OF_ASC_NODE":353.8339,"ARG_OF_PERICENTER":97.1171,"MEAN_ANOMALY":263.014,"EPHEMERIS_TYPE":0,"CLASSIFICATION_TYPE":"U","NORAD_CAT_ID":48226,"ELEMENT_SET_NO":999,"REV_AT_EPOCH":20592,"BSTAR":0.00054336,"MEAN_MOTION_DOT":2.14e-6,"MEAN_MOTION_DDOT":0},{"OBJECT_NAME":"ONEWEB-0206","OBJECT_ID":"2021-031T","EPOCH":"2025-07-29T21:42:03.642048","MEAN_MOTION":13.14504176,"ECCENTRICITY":0.0001734,"INCLINATION":87.9064,"RA_OF_ASC_NODE":353.8035,"ARG_OF_PERICENTER":98.2985,"MEAN_ANOMALY":261.8341,"EPHEMERIS_TYPE":0,"CLASSIFICATION_TYPE":"U","NORAD_CAT_ID":48227,"ELEMENT_SET_NO":999,"REV_AT_EPOCH":20588,"BSTAR":-6.0097e-5,"MEAN_MOTION_DOT":-1.0e-7,"MEAN_MOTION_DDOT":0},{"OBJECT_NAME":"ONEWEB-0182","OBJECT_ID":"2021-031U","EPOCH":"2025-07-29T21:35:14.068032","MEAN_MOTION":13.14502855,"ECCENTRICITY":0.0001801,"INCLINATION":87.9064,"RA_OF_ASC_NODE":353.849,"ARG_OF_PERICENTER":104.2615,"MEAN_ANOMALY":255.8715,"EPHEMERIS_TYPE":0,"CLASSIFICATION_TYPE":"U","NORAD_CAT_ID":48228,"ELEMENT_SET_NO":999,"REV_AT_EPOCH":20609,"BSTAR":-0.00020234,"MEAN_MOTION_DOT":-6.2e-7,"MEAN_MOTION_DDOT":0},{"OBJECT_NAME":"ONEWEB-0186","OBJECT_ID":"2021-031V","EPOCH":"2025-07-29T21:51:11.965824","MEAN_MOTION":13.14501665,"ECCENTRICITY":0.0001708,"INCLINATION":87.9065,"RA_OF_ASC_NODE":353.8079,"ARG_OF_PERICENTER":95.9697,"MEAN_ANOMALY":264.1627,"EPHEMERIS_TYPE":0,"CLASSIFICATION_TYPE":"U","NORAD_CAT_ID":48229,"ELEMENT_SET_NO":999,"REV_AT_EPOCH":20604,"BSTAR":0.00017512,"MEAN_MOTION_DOT":7.8e-7,"MEAN_MOTION_DDOT":0},{"OBJECT_NAME":"ONEWEB-0181","OBJECT_ID":"2021-031W","EPOCH":"2025-07-29T23:08:49.753536","MEAN_MOTION":13.14504084,"ECCENTRICITY":0.0001726,"INCLINATION":87.9069,"RA_OF_ASC_NODE":353.8694,"ARG_OF_PERICENTER":92.0958,"MEAN_ANOMALY":268.0369,"EPHEMERIS_TYPE":0,"CLASSIFICATION_TYPE":"U","NORAD_CAT_ID":48230,"ELEMENT_SET_NO":999,"REV_AT_EPOCH":20591,"BSTAR":-0.00070045,"MEAN_MOTION_DOT":-2.47e-6,"MEAN_MOTION_DDOT":0},{"OBJECT_NAME":"ONEWEB-0188","OBJECT_ID":"2021-031X","EPOCH":"2025-07-29T20:24:25.823232","MEAN_MOTION":13.14503758,"ECCENTRICITY":0.0001759,"INCLINATION":87.9068,"RA_OF_ASC_NODE":353.8828,"ARG_OF_PERICENTER":97.8607,"MEAN_ANOMALY":262.2723,"EPHEMERIS_TYPE":0,"CLASSIFICATION_TYPE":"U","NORAD_CAT_ID":48231,"ELEMENT_SET_NO":999,"REV_AT_EPOCH":20579,"BSTAR":0.00052808,"MEAN_MOTION_DOT":2.09e-6,"MEAN_MOTION_DDOT":0},{"OBJECT_NAME":"ONEWEB-0220","OBJECT_ID":"2021-031Y","EPOCH":"2025-07-29T21:21:31.324896","MEAN_MOTION":13.14502492,"ECCENTRICITY":0.0001575,"INCLINATION":87.906,"RA_OF_ASC_NODE":353.8153,"ARG_OF_PERICENTER":99.2377,"MEAN_ANOMALY":260.8931,"EPHEMERIS_TYPE":0,"CLASSIFICATION_TYPE":"U","NORAD_CAT_ID":48232,"ELEMENT_SET_NO":999,"REV_AT_EPOCH":20606,"BSTAR":-0.00058683,"MEAN_MOTION_DOT":-2.05e-6,"MEAN_MOTION_DDOT":0},{"OBJECT_NAME":"ONEWEB-0165","OBJECT_ID":"2021-031Z","EPOCH":"2025-07-29T20:13:00.389568","MEAN_MOTION":13.14502303,"ECCENTRICITY":0.0001563,"INCLINATION":87.9066,"RA_OF_ASC_NODE":353.8686,"ARG_OF_PERICENTER":95.81,"MEAN_ANOMALY":264.3207,"EPHEMERIS_TYPE":0,"CLASSIFICATION_TYPE":"U","NORAD_CAT_ID":48233,"ELEMENT_SET_NO":999,"REV_AT_EPOCH":20601,"BSTAR":0.00066885,"MEAN_MOTION_DOT":2.61e-6,"MEAN_MOTION_DDOT":0}]
